[
  { 
    "name" : "STARLETTE",
    "tle_line_1" : "1 07646U 75010A   22118.51569212 -.00000125  00000+0  15739-4 0  9998",
    "tle_line_2" : "2 07646  49.8235 307.3078 0205701 112.6280 249.6511 13.82311947385574" 
  },
  { 
    "name" : "LAGEOS 1",
    "tle_line_1" : "1 08820U 76039A   22118.50130980 -.00000012  00000+0  00000+0 0  9995",
    "tle_line_2" : "2 08820 109.8616  21.8840 0045061 265.4608 236.2623  6.38665064816666" 
  },
  { 
    "name" : "AJISAI (EGS)",
    "tle_line_1" : "1 16908U 86061A   22118.56049219 -.00000116  00000+0 -13054-3 0  9990",
    "tle_line_2" : "2 16908  50.0079 112.4511 0011361 295.5005 179.5434 12.44496266292280" 
  },
  { 
    "name" : "COSMOS 1989 (ETALON 1)",
    "tle_line_1" : "1 19751U 89001C   22118.59353542  .00000077  00000+0  00000+0 0  9993",
    "tle_line_2" : "2 19751  64.2922 124.1015 0023720 213.2296 141.4130  2.13156307259168" 
  },
  { 
    "name" : "COSMOS 2024 (ETALON 2)",
    "tle_line_1" : "1 20026U 89039C   22118.41340248 -.00000078  00000+0  00000+0 0  9993",
    "tle_line_2" : "2 20026  65.5442   2.0789 0018345 218.9244 258.9382  2.13204339256293" 
  },
  { 
    "name" : "LAGEOS 2",
    "tle_line_1" : "1 22195U 92070B   22119.14379153 -.00000009  00000+0  00000+0 0  9993",
    "tle_line_2" : "2 22195  52.6387 140.9632 0137996 247.3212 112.1535  6.47294248697863" 
  },
  { 
    "name" : "STELLA",
    "tle_line_1" : "1 22824U 93061B   22118.57198302 -.00000024  00000+0  91954-5 0  9995",
    "tle_line_2" : "2 22824  98.9683 138.2179 0005502 305.4904 171.9202 14.27389683489263" 
  },
  { 
    "name" : "LARES",
    "tle_line_1" : "1 38077U 12006A   22118.37547117 -.00000038  00000+0  59408-5 0  9995",
    "tle_line_2" : "2 38077  69.4956 352.8470 0007450  11.6198 348.4986 12.54931108467628" 
  }
]